FLOCK 4S-17             
1 47492U 21006CH  22328.14713891  .00004071  00000+0  19573-3 0  9995
2 47492  97.4300  24.8717 0010609  84.6199 275.6245 15.19319201101480
FLOCK 4S-3              
1 47494U 21006CK  22328.38396780  .00014692  00000+0  73043-3 0  9999
2 47494  97.4173  23.4158 0010328  83.6545 276.5864 15.17693598101474
FLOCK 4S-27             
1 47495U 21006CL  22328.14277574  .00008751  00000+0  41636-3 0  9995
2 47495  97.4171  23.8509 0011043  83.9577 276.2915 15.19352722101488
FLOCK 4S-18             
1 47496U 21006CM  22328.14201510  .00010105  00000+0  47994-3 0  9992
2 47496  97.4277  24.7612 0010835  85.0757 275.1714 15.19375126101480
FLOCK 4S-26             
1 47497U 21006CN  22328.10385926  .00010095  00000+0  42196-3 0  9990
2 47497  97.4162  24.9482 0009074  78.9317 281.2940 15.23766771101559
FLOCK 4S-2              
1 47498U 21006CP  22328.38638408  .00016969  00000+0  78031-3 0  9990
2 47498  97.4176  24.1927 0009644  81.7490 278.4839 15.20376874101528
FLOCK 4S-40             
1 47499U 21006CQ  22328.41363451  .00007304  00000+0  34924-3 0  9994
2 47499  97.4291  25.0068 0011246  85.2674 274.9845 15.19236687101520
FLOCK 4S-19             
1 47500U 21006CR  22328.39398670  .00007207  00000+0  34245-3 0  9993
2 47500  97.4275  25.0145 0011393  81.8316 278.4210 15.19460017101520
FLOCK 4S-28             
1 47514U 21006DE  22328.41832072  .00011279  00000+0  53692-3 0  9991
2 47514  97.4170  23.9033 0008937  92.0720 268.1538 15.19282805102476
FLOCK 4S-5              
1 47515U 21006DF  22328.15247322  .00005772  00000+0  27659-3 0  9996
2 47515  97.4160  23.5892 0009155  93.3794 266.8488 15.19273575101475
FLOCK 4S-16             
1 47516U 21006DG  22328.42731231  .00012222  00000+0  57959-3 0  9998
2 47516  97.4278  24.8787 0008869  91.6113 268.6137 15.19394244102479
FLOCK 4S-6              
1 47518U 21006DJ  22328.42815457  .00011031  00000+0  52258-3 0  9997
2 47518  97.4177  23.9431 0009042  94.6526 265.5742 15.19454078102481
FLOCK 4S-29             
1 47520U 21006DL  22328.42367320  .00007495  00000+0  35794-3 0  9996
2 47520  97.4185  24.0017 0008638  92.4285 267.7939 15.19293429101519
FLOCK 4S-15             
1 47521U 21006DM  22328.12681480  .00013516  00000+0  67305-3 0  9994
2 47521  97.4294  24.0499 0008550  99.1644 261.0557 15.17670248102409
FLOCK 4S-37             
1 47522U 21006DN  22328.36657494  .00012111  00000+0  57398-3 0  9990
2 47522  97.4272  24.6873 0008672  93.7364 266.4862 15.19419197102473
FLOCK 4S-10             
1 47523U 21006DP  22328.40394310  .00007341  00000+0  34992-3 0  9995
2 47523  97.4205  24.0701 0008662  97.5016 262.7203 15.19367877101507
FLOCK 4S-7              
1 47527U 21006DT  22328.10536452  .00008224  00000+0  38983-3 0  9996
2 47527  97.4176  23.6135 0008750  95.2882 264.9351 15.19521645102423
FLOCK 4S-14             
1 47528U 21006DU  22328.11190815  .00009246  00000+0  43840-3 0  9990
2 47528  97.4273  24.4424 0008685  95.3122 264.9104 15.19475827102423
FLOCK 4S-36             
1 47530U 21006DW  22328.11332854  .00013457  00000+0  63599-3 0  9996
2 47530  97.4261  24.3557 0008406  94.2489 265.9706 15.19493855102424
FLOCK 4S-24             
1 47539U 21006DZ  22328.44533931  .00004714  00000+0  22513-3 0  9997
2 47539  97.4208  24.5182 0011631  79.4542 280.8003 15.19460616101535
FLOCK 4S-20             
1 47540U 21006EA  22328.11560744  .00006194  00000+0  29450-3 0  9996
2 47540  97.4272  24.6755 0010909  81.0881 279.1588 15.19502095100555
FLOCK 4S-25             
1 47542U 21006EC  22328.12284634  .00010492  00000+0  49662-3 0  9993
2 47542  97.4184  24.0053 0011233  83.0333 277.2179 15.19476854100557
FLOCK 4S-1              
1 47543U 21006ED  22328.38476370  .00010090  00000+0  47758-3 0  9990
2 47543  97.4186  24.2561 0010772  78.7065 281.5380 15.19492891100591
FLOCK 4S-30             
1 47544U 21006EE  22328.16802613  .00012189  00000+0  57687-3 0  9993
2 47544  97.4188  23.7848 0008378  93.1630 267.0563 15.19469379102436
FLOCK 4S-23             
1 47545U 21006EF  22328.16357241  .00004809  00000+0  22988-3 0  9992
2 47545  97.4223  24.3778 0011222  82.1690 278.0818 15.19425856102462
FLOCK 4S-42             
1 47612U 21006EQ  22328.42296241  .00004489  00000+0  21568-3 0  9995
2 47612  97.4242  24.7086 0011385  92.3993 267.8545 15.19282674101521
FLOCK 4S-48             
1 47617U 21006EJ  22328.13575695  .00005299  00000+0  25249-3 0  9991
2 47617  97.4232  24.5298 0011996  75.1503 285.1059 15.19478989102465
FLOCK 4S-46             
1 47684U 21006EK  22328.41207784  .00004729  00000+0  22667-3 0  9995
2 47684  97.4234  24.7456 0008410 103.2891 256.9282 15.19362720101535
FLOCK 4S-47             
1 47685U 21006EL  22328.14580543  .00003941  00000+0  18945-3 0  9992
2 47685  97.4211  23.9074 0007619  98.7709 261.4389 15.19372045102434
FLOCK 4S-44             
1 47686U 21006EM  22328.20108230  .00004204  00000+0  20231-3 0  9993
2 47686  97.4255  24.6208 0012092  89.4301 270.8319 15.19258550101492
FLOCK 4S-43             
1 47687U 21006EN  22328.38295661  .00013886  00000+0  65571-3 0  9990
2 47687  97.4221  24.3144 0007674  85.4876 274.7236 15.19521125102476
FLOCK 4S-45             
1 47688U 21006EP  22328.13155626  .00003785  00000+0  18210-3 0  9995
2 47688  97.4238  24.0075 0011229  76.2664 283.9820 15.19336639102429
FLOCK 4S-41             
1 47698U 21006ER  22328.42298151  .00012410  00000+0  59084-3 0  9998
2 47698  97.4291  24.9356 0010750  85.3774 274.8688 15.19238587101514
FLOCK 4X-8              
1 50992U 22002J   22328.45363945  .00005083  00000+0  25081-3 0  9991
2 50992  97.4695  33.4392 0009594 232.2041 127.8325 15.18314790 47673
FLOCK 4X-44             
1 50994U 22002L   22328.19648324  .00011824  00000+0  57861-3 0  9992
2 50994  97.4725  33.2591 0009751 233.6030 126.4305 15.18305439 47635
FLOCK 4X-2              
1 50996U 22002N   22328.12870481  .00009967  00000+0  48858-3 0  9999
2 50996  97.4716  33.1580 0009687 234.1120 125.9215 15.18290907 47624
FLOCK 4X-20             
1 50997U 22002P   22328.19179584  .00012232  00000+0  59853-3 0  9999
2 50997  97.4716  33.2179 0009618 234.3414 125.6925 15.18301829 47634
FLOCK 4X-30             
1 51000U 22002S   22328.19248989  .00005734  00000+0  28252-3 0  9999
2 51000  97.4665  32.9945 0009690 224.0867 135.9596 15.18307072 47632
FLOCK 4X-22             
1 51003U 22002V   22328.45186265  .00008636  00000+0  42338-3 0  9994
2 51003  97.4700  33.4187 0009690 235.0310 125.0015 15.18332708 47678
FLOCK 4X-5              
1 51004U 22002W   22328.45010110  .00009815  00000+0  48116-3 0  9990
2 51004  97.4672  33.3074 0010242 226.0352 134.0038 15.18289270 47672
FLOCK 4X-41             
1 51005U 22002X   22328.44842212  .00010070  00000+0  49337-3 0  9997
2 51005  97.4658  33.2391 0009724 221.2196 138.8305 15.18306706 47677
FLOCK 4X-3              
1 51006U 22002Y   22328.44754857  .00011036  00000+0  54072-3 0  9990
2 51006  97.4704  33.4818 0010224 230.3966 129.6366 15.18275011 47678
FLOCK 4X-18             
1 51007U 22002Z   22328.44579292  .00011205  00000+0  54875-3 0  9998
2 51007  97.4678  33.3260 0010390 225.4754 134.5632 15.18285600 47679
FLOCK 4X-37             
1 51009U 22002AB  22328.44447659  .00012247  00000+0  59893-3 0  9993
2 51009  97.4722  33.5227 0010504 229.6825 130.3491 15.18311612 47678
FLOCK 4X-15             
1 51010U 22002AC  22328.43776417  .00004637  00000+0  22943-3 0  9991
2 51010  97.4725  33.5482 0010771 228.3799 131.6513 15.18254998 47670
FLOCK 4X-29             
1 51011U 22002AD  22328.44253027  .00012137  00000+0  59366-3 0  9993
2 51011  97.4672  33.3060 0010341 224.1169 135.9241 15.18310737 47679
FLOCK 4X-27             
1 51012U 22002AE  22328.44102588  .00011394  00000+0  55741-3 0  9996
2 51012  97.4709  33.4725 0010615 233.0339 126.9923 15.18316572 47672
FLOCK 4X-12             
1 51015U 22002AH  22328.17135281  .00011023  00000+0  53939-3 0  9991
2 51015  97.4713  33.2294 0010856 227.1519 132.8804 15.18315227 47636
FLOCK 4X-25             
1 51016U 22002AJ  22328.43952644  .00010425  00000+0  51010-3 0  9994
2 51016  97.4691  33.4185 0010358 234.5111 125.5157 15.18337497 47677
FLOCK 4X-1              
1 51017U 22002AK  22328.43324667  .00011390  00000+0  55728-3 0  9995
2 51017  97.4675  33.3459 0010805 225.6342 134.4008 15.18311037 47673
FLOCK 4X-42             
1 51018U 22002AL  22328.43602586  .00010653  00000+0  52120-3 0  9999
2 51018  97.4658  33.2797 0010641 221.3124 138.7306 15.18333786 47671
FLOCK 4X-16             
1 51020U 22002AN  22328.16759597  .00007018  00000+0  34464-3 0  9999
2 51020  97.4667  33.0387 0010713 222.6722 137.3681 15.18332874 47639
FLOCK 4X-38             
1 51023U 22002AR  22328.43021120  .00008991  00000+0  44085-3 0  9997
2 51023  97.4715  33.5155 0010978 228.7720 131.2569 15.18302043 47679
FLOCK 4X-32             
1 51024U 22002AS  22328.49486195  .00009110  00000+0  44650-3 0  9993
2 51024  97.4720  33.5986 0010985 225.2179 134.8162 15.18312001 47680
FLOCK 4X-26             
1 51026U 22002AU  22328.49144836  .00011592  00000+0  56706-3 0  9990
2 51026  97.4676  33.4287 0010725 226.2158 133.8190 15.18314687 47687
FLOCK 4X-43             
1 51027U 22002AV  22328.16297309  .00010640  00000+0  52101-3 0  9997
2 51027  97.4675  33.0841 0010733 224.8850 135.1517 15.18303023 47636
FLOCK 4X-13             
1 51028U 22002AW  22328.16021976  .00010983  00000+0  53781-3 0  9998
2 51028  97.4673  33.0818 0010828 223.0882 136.9505 15.18292822 47630
FLOCK 4X-39             
1 51029U 22002AX  22328.15358812  .00004449  00000+0  21996-3 0  9993
2 51029  97.4675  33.0936 0010702 221.3665 138.6759 15.18303665 47633
FLOCK 4X-17             
1 51035U 22002BD  22328.42050145  .00011482  00000+0  56240-3 0  9993
2 51035  97.4706  33.3497 0007027 231.0629 128.9979 15.18301184 47667
FLOCK 4X-10             
1 51037U 22002BF  22328.13201442  .00004904  00000+0  24210-3 0  9994
2 51037  97.4723  33.1822 0009586 231.7040 128.3332 15.18311928 47624
